CCSDS_OMM_VERS = 2.0
CREATION_DATE  = 
ORIGINATOR     = 

OBJECT_NAME    = UNKNOWN
OBJECT_ID      = 
CENTER_NAME    = EARTH
REF_FRAME      = TEME
TIME_SYSTEM    = UTC
MEAN_ELEMENT_THEORY = SGP/SGP4

EPOCH          = 2026-01-10T12:23:14.934048
MEAN_MOTION    = 12.51154068
ECCENTRICITY   = .07744383
INCLINATION    = 99.4340
RA_OF_ASC_NODE = 105.0398
ARG_OF_PERICENTER = 11.1256
MEAN_ANOMALY   = 350.5910

EPHEMERIS_TYPE = 0
CLASSIFICATION_TYPE = U
NORAD_CAT_ID   = 270140
ELEMENT_SET_NO = 999
REV_AT_EPOCH   = 27868
BSTAR          = .25289152E-2
MEAN_MOTION_DOT = .1152E-4
MEAN_MOTION_DDOT = 0

CCSDS_OMM_VERS = 2.0
CREATION_DATE  = 
ORIGINATOR     = 

OBJECT_NAME    = UNKNOWN
OBJECT_ID      = 
CENTER_NAME    = EARTH
REF_FRAME      = TEME
TIME_SYSTEM    = UTC
MEAN_ELEMENT_THEORY = SGP/SGP4

EPOCH          = 2026-01-08T22:21:55.066176
MEAN_MOTION    = 12.42201539
ECCENTRICITY   = .00249836
INCLINATION    = 73.6101
RA_OF_ASC_NODE = 244.1172
ARG_OF_PERICENTER = 77.0924
MEAN_ANOMALY   = 283.2909

EPHEMERIS_TYPE = 0
CLASSIFICATION_TYPE = U
NORAD_CAT_ID   = 270141
ELEMENT_SET_NO = 999
REV_AT_EPOCH   = 27747
BSTAR          = .28432198E-3
MEAN_MOTION_DOT = .22E-6
MEAN_MOTION_DDOT = 0

CCSDS_OMM_VERS = 2.0
CREATION_DATE  = 
ORIGINATOR     = 

OBJECT_NAME    = UNKNOWN
OBJECT_ID      = 
CENTER_NAME    = EARTH
REF_FRAME      = TEME
TIME_SYSTEM    = UTC
MEAN_ELEMENT_THEORY = SGP/SGP4

EPOCH          = 2026-01-13T09:11:34.178208
MEAN_MOTION    = 13.68216905
ECCENTRICITY   = .00435776
INCLINATION    = 99.2661
RA_OF_ASC_NODE = 243.4753
ARG_OF_PERICENTER = 135.1536
MEAN_ANOMALY   = 225.3145

EPHEMERIS_TYPE = 0
CLASSIFICATION_TYPE = U
NORAD_CAT_ID   = 270143
ELEMENT_SET_NO = 999
REV_AT_EPOCH   = 30615
BSTAR          = .24828742E-3
MEAN_MOTION_DOT = .171E-5
MEAN_MOTION_DDOT = 0

CCSDS_OMM_VERS = 2.0
CREATION_DATE  = 
ORIGINATOR     = 

OBJECT_NAME    = UNKNOWN
OBJECT_ID      = 
CENTER_NAME    = EARTH
REF_FRAME      = TEME
TIME_SYSTEM    = UTC
MEAN_ELEMENT_THEORY = SGP/SGP4

EPOCH          = 2026-01-14T04:37:24.601440
MEAN_MOTION    = 14.53212140
ECCENTRICITY   = .00166518
INCLINATION    = 86.3081
RA_OF_ASC_NODE = 346.6148
ARG_OF_PERICENTER = 27.6150
MEAN_ANOMALY   = 332.5937

EPHEMERIS_TYPE = 0
CLASSIFICATION_TYPE = U
NORAD_CAT_ID   = 270144
ELEMENT_SET_NO = 999
REV_AT_EPOCH   = 32245
BSTAR          = .54755994E-3
MEAN_MOTION_DOT = .2293E-4
MEAN_MOTION_DDOT = 0

CCSDS_OMM_VERS = 2.0
CREATION_DATE  = 
ORIGINATOR     = 

OBJECT_NAME    = UNKNOWN
OBJECT_ID      = 
CENTER_NAME    = EARTH
REF_FRAME      = TEME
TIME_SYSTEM    = UTC
MEAN_ELEMENT_THEORY = SGP/SGP4

EPOCH          = 2026-01-06T00:49:21.289152
MEAN_MOTION    = 11.70030082
ECCENTRICITY   = .04432478
INCLINATION    = 102.5044
RA_OF_ASC_NODE = 295.7229
ARG_OF_PERICENTER = 127.7511
MEAN_ANOMALY   = 236.4534

EPHEMERIS_TYPE = 0
CLASSIFICATION_TYPE = U
NORAD_CAT_ID   = 270145
ELEMENT_SET_NO = 999
REV_AT_EPOCH   = 2071
BSTAR          = .58878207E-1
MEAN_MOTION_DOT = .423E-4
MEAN_MOTION_DDOT = 0

CCSDS_OMM_VERS = 2.0
CREATION_DATE  = 
ORIGINATOR     = 

OBJECT_NAME    = UNKNOWN
OBJECT_ID      = 
CENTER_NAME    = EARTH
REF_FRAME      = TEME
TIME_SYSTEM    = UTC
MEAN_ELEMENT_THEORY = SGP/SGP4

EPOCH          = 2026-01-12T22:54:36.523296
MEAN_MOTION    = 11.61039429
ECCENTRICITY   = .05455673
INCLINATION    = 102.4166
RA_OF_ASC_NODE = 97.0877
ARG_OF_PERICENTER = 271.4595
MEAN_ANOMALY   = 82.4020

EPHEMERIS_TYPE = 0
CLASSIFICATION_TYPE = U
NORAD_CAT_ID   = 270147
ELEMENT_SET_NO = 999
REV_AT_EPOCH   = 2203
BSTAR          = .82601327E-1
MEAN_MOTION_DOT = .6012E-4
MEAN_MOTION_DDOT = 0

CCSDS_OMM_VERS = 2.0
CREATION_DATE  = 
ORIGINATOR     = 

OBJECT_NAME    = UNKNOWN
OBJECT_ID      = 
CENTER_NAME    = EARTH
REF_FRAME      = TEME
TIME_SYSTEM    = UTC
MEAN_ELEMENT_THEORY = SGP/SGP4

EPOCH          = 2026-01-14T17:32:59.312256
MEAN_MOTION    = 13.06080134
ECCENTRICITY   = .00305462
INCLINATION    = 90.3087
RA_OF_ASC_NODE = 11.3311
ARG_OF_PERICENTER = 125.4214
MEAN_ANOMALY   = 234.9771

EPHEMERIS_TYPE = 0
CLASSIFICATION_TYPE = U
NORAD_CAT_ID   = 270149
ELEMENT_SET_NO = 999
REV_AT_EPOCH   = 29133
BSTAR          = .20360495E-2
MEAN_MOTION_DOT = .677E-5
MEAN_MOTION_DDOT = 0

CCSDS_OMM_VERS = 2.0
CREATION_DATE  = 
ORIGINATOR     = 

OBJECT_NAME    = UNKNOWN
OBJECT_ID      = 
CENTER_NAME    = EARTH
REF_FRAME      = TEME
TIME_SYSTEM    = UTC
MEAN_ELEMENT_THEORY = SGP/SGP4

EPOCH          = 2026-01-14T19:10:58.541952
MEAN_MOTION    = 12.98932628
ECCENTRICITY   = .00385753
INCLINATION    = 90.3049
RA_OF_ASC_NODE = 39.1521
ARG_OF_PERICENTER = 32.5925
MEAN_ANOMALY   = 327.7567

EPHEMERIS_TYPE = 0
CLASSIFICATION_TYPE = U
NORAD_CAT_ID   = 270152
ELEMENT_SET_NO = 999
REV_AT_EPOCH   = 29069
BSTAR          = .57627416E-3
MEAN_MOTION_DOT = .179E-5
MEAN_MOTION_DDOT = 0

CCSDS_OMM_VERS = 2.0
CREATION_DATE  = 
ORIGINATOR     = 

OBJECT_NAME    = UNKNOWN
OBJECT_ID      = 
CENTER_NAME    = EARTH
REF_FRAME      = TEME
TIME_SYSTEM    = UTC
MEAN_ELEMENT_THEORY = SGP/SGP4

EPOCH          = 2026-01-10T15:23:59.610624
MEAN_MOTION    = 12.30368708
ECCENTRICITY   = .07367785
INCLINATION    = 83.2121
RA_OF_ASC_NODE = 143.0318
ARG_OF_PERICENTER = 321.7777
MEAN_ANOMALY   = 33.3170

EPHEMERIS_TYPE = 0
CLASSIFICATION_TYPE = U
NORAD_CAT_ID   = 270153
ELEMENT_SET_NO = 999
REV_AT_EPOCH   = 27441
BSTAR          = .65296276E-2
MEAN_MOTION_DOT = .1913E-4
MEAN_MOTION_DDOT = 0

CCSDS_OMM_VERS = 2.0
CREATION_DATE  = 
ORIGINATOR     = 

OBJECT_NAME    = UNKNOWN
OBJECT_ID      = 
CENTER_NAME    = EARTH
REF_FRAME      = TEME
TIME_SYSTEM    = UTC
MEAN_ELEMENT_THEORY = SGP/SGP4

EPOCH          = 2025-12-26T07:41:32.991936
MEAN_MOTION    = 12.96241243
ECCENTRICITY   = .00306186
INCLINATION    = 90.2363
RA_OF_ASC_NODE = 9.1968
ARG_OF_PERICENTER = 246.2631
MEAN_ANOMALY   = 113.5276

EPHEMERIS_TYPE = 0
CLASSIFICATION_TYPE = U
NORAD_CAT_ID   = 270154
ELEMENT_SET_NO = 999
REV_AT_EPOCH   = 28734
BSTAR          = .14948089E-2
MEAN_MOTION_DOT = .434E-5
MEAN_MOTION_DDOT = 0

CCSDS_OMM_VERS = 2.0
CREATION_DATE  = 
ORIGINATOR     = 

OBJECT_NAME    = UNKNOWN
OBJECT_ID      = 
CENTER_NAME    = EARTH
REF_FRAME      = TEME
TIME_SYSTEM    = UTC
MEAN_ELEMENT_THEORY = SGP/SGP4

EPOCH          = 2026-01-13T06:22:16.192416
MEAN_MOTION    = 13.04444228
ECCENTRICITY   = .00201991
INCLINATION    = 90.2266
RA_OF_ASC_NODE = 15.0000
ARG_OF_PERICENTER = 219.8543
MEAN_ANOMALY   = 140.1100

EPHEMERIS_TYPE = 0
CLASSIFICATION_TYPE = U
NORAD_CAT_ID   = 270156
ELEMENT_SET_NO = 999
REV_AT_EPOCH   = 29038
BSTAR          = -.15874114E-2
MEAN_MOTION_DOT = -.502E-5
MEAN_MOTION_DDOT = 0

CCSDS_OMM_VERS = 2.0
CREATION_DATE  = 
ORIGINATOR     = 

OBJECT_NAME    = UNKNOWN
OBJECT_ID      = 
CENTER_NAME    = EARTH
REF_FRAME      = TEME
TIME_SYSTEM    = UTC
MEAN_ELEMENT_THEORY = SGP/SGP4

EPOCH          = 2026-01-13T01:41:31.558560
MEAN_MOTION    = 12.76029579
ECCENTRICITY   = .09803553
INCLINATION    = 65.8254
RA_OF_ASC_NODE = 143.6808
ARG_OF_PERICENTER = 217.7025
MEAN_ANOMALY   = 135.1250

EPHEMERIS_TYPE = 0
CLASSIFICATION_TYPE = U
NORAD_CAT_ID   = 270157
ELEMENT_SET_NO = 999
REV_AT_EPOCH   = 28457
BSTAR          = .64050741E-3
MEAN_MOTION_DOT = .1042E-4
MEAN_MOTION_DDOT = 0

CCSDS_OMM_VERS = 2.0
CREATION_DATE  = 
ORIGINATOR     = 

OBJECT_NAME    = UNKNOWN
OBJECT_ID      = 
CENTER_NAME    = EARTH
REF_FRAME      = TEME
TIME_SYSTEM    = UTC
MEAN_ELEMENT_THEORY = SGP/SGP4

EPOCH          = 2025-12-17T19:13:03.340704
MEAN_MOTION    = 12.21559431
ECCENTRICITY   = .01368735
INCLINATION    = 73.9999
RA_OF_ASC_NODE = 195.5131
ARG_OF_PERICENTER = 315.7168
MEAN_ANOMALY   = 43.2979

EPHEMERIS_TYPE = 0
CLASSIFICATION_TYPE = U
NORAD_CAT_ID   = 270158
ELEMENT_SET_NO = 999
REV_AT_EPOCH   = 27029
BSTAR          = .65278814E-3
MEAN_MOTION_DOT = .56E-6
MEAN_MOTION_DDOT = 0

CCSDS_OMM_VERS = 2.0
CREATION_DATE  = 
ORIGINATOR     = 

OBJECT_NAME    = UNKNOWN
OBJECT_ID      = 
CENTER_NAME    = EARTH
REF_FRAME      = TEME
TIME_SYSTEM    = UTC
MEAN_ELEMENT_THEORY = SGP/SGP4

EPOCH          = 2026-01-10T15:56:27.925440
MEAN_MOTION    = 12.81649341
ECCENTRICITY   = .02788694
INCLINATION    = 62.9600
RA_OF_ASC_NODE = 148.8338
ARG_OF_PERICENTER = 219.8209
MEAN_ANOMALY   = 138.2020

EPHEMERIS_TYPE = 0
CLASSIFICATION_TYPE = U
NORAD_CAT_ID   = 270159
ELEMENT_SET_NO = 999
REV_AT_EPOCH   = 28651
BSTAR          = .19685377E-2
MEAN_MOTION_DOT = .463E-5
MEAN_MOTION_DDOT = 0

CCSDS_OMM_VERS = 2.0
CREATION_DATE  = 
ORIGINATOR     = 

OBJECT_NAME    = UNKNOWN
OBJECT_ID      = 
CENTER_NAME    = EARTH
REF_FRAME      = TEME
TIME_SYSTEM    = UTC
MEAN_ELEMENT_THEORY = SGP/SGP4

EPOCH          = 2026-01-03T18:02:28.558752
MEAN_MOTION    = 12.15876914
ECCENTRICITY   = .08738106
INCLINATION    = 83.2753
RA_OF_ASC_NODE = 9.3439
ARG_OF_PERICENTER = 221.6678
MEAN_ANOMALY   = 131.4568

EPHEMERIS_TYPE = 0
CLASSIFICATION_TYPE = U
NORAD_CAT_ID   = 270160
ELEMENT_SET_NO = 999
REV_AT_EPOCH   = 26970
BSTAR          = .4066208E-2
MEAN_MOTION_DOT = .1338E-4
MEAN_MOTION_DDOT = 0

CCSDS_OMM_VERS = 2.0
CREATION_DATE  = 
ORIGINATOR     = 

OBJECT_NAME    = UNKNOWN
OBJECT_ID      = 
CENTER_NAME    = EARTH
REF_FRAME      = TEME
TIME_SYSTEM    = UTC
MEAN_ELEMENT_THEORY = SGP/SGP4

EPOCH          = 2026-01-10T05:08:38.181984
MEAN_MOTION    = 12.76552504
ECCENTRICITY   = .00517974
INCLINATION    = 101.1030
RA_OF_ASC_NODE = 357.3158
ARG_OF_PERICENTER = 212.1491
MEAN_ANOMALY   = 147.6434

EPHEMERIS_TYPE = 0
CLASSIFICATION_TYPE = U
NORAD_CAT_ID   = 270161
ELEMENT_SET_NO = 999
REV_AT_EPOCH   = 28481
BSTAR          = .24117687E-2
MEAN_MOTION_DOT = .482E-5
MEAN_MOTION_DDOT = 0

